{
  "norad_id": 56955,
  "name": "BLACKJACK ACES-2",
  "history": [
    {
      "epoch": "2026-03-27T21:58:15.113280Z",
      "apogee_km": 510.0597533975988,
      "perigee_km": 508.2139640034675,
      "latitude_deg": 1.799975094410097e-05,
      "longitude_deg": 66.75372376849515,
      "height_km": 513.1385893667291,
      "semi_major_axis_km": 6887.273858700532,
      "eccentricity": 0.000134,
      "inclination_deg": 97.6065,
      "raan_deg": 221.6601,
      "arg_perigee_deg": 185.7203,
      "mean_anomaly_deg": 174.4016,
      "mean_motion_rev_day": 15.18908924
    },
    {
      "epoch": "2026-03-28T21:41:27.176064Z",
      "apogee_km": 512.2760204108117,
      "perigee_km": 508.81927845372593,
      "latitude_deg": 3.793811415216488e-05,
      "longitude_deg": 70.96931255317183,
      "height_km": 515.251157852213,
      "semi_major_axis_km": 6888.684649432269,
      "eccentricity": 0.0002509,
      "inclination_deg": 97.6075,
      "raan_deg": 222.6501,
      "arg_perigee_deg": 200.4412,
      "mean_anomaly_deg": 159.6722,
      "mean_motion_rev_day": 15.18442343
    },
    {
      "epoch": "2026-03-30T03:44:50.796672Z",
      "apogee_km": 512.7935236396679,
      "perigee_km": 510.3821199520389,
      "latitude_deg": -5.107311217799786e-05,
      "longitude_deg": -19.850173283411223,
      "height_km": 515.8536666178837,
      "semi_major_axis_km": 6889.724821795853,
      "eccentricity": 0.000175,
      "inclination_deg": 97.6067,
      "raan_deg": 223.9134,
      "arg_perigee_deg": 169.1485,
      "mean_anomaly_deg": 190.9786,
      "mean_motion_rev_day": 15.18098487
    },
    {
      "epoch": "2026-03-30T06:54:40.691808Z",
      "apogee_km": 512.7450824795706,
      "perigee_km": 510.4138780113144,
      "latitude_deg": 2.233554489663962e-05,
      "longitude_deg": -67.3056143840076,
      "height_km": 515.8053206329549,
      "semi_major_axis_km": 6889.716480245442,
      "eccentricity": 0.00016918,
      "inclination_deg": 97.6068,
      "raan_deg": 224.0458,
      "arg_perigee_deg": 168.9894,
      "mean_anomaly_deg": 191.1377,
      "mean_motion_rev_day": 15.18101244
    },
    {
      "epoch": "2026-03-30T14:49:15.303072Z",
      "apogee_km": 512.7974649905746,
      "perigee_km": 510.3294364951098,
      "latitude_deg": 1.869188099430442e-05,
      "longitude_deg": 174.05723656646862,
      "height_km": 515.861084449872,
      "semi_major_axis_km": 6889.700450742842,
      "eccentricity": 0.00017911,
      "inclination_deg": 97.607,
      "raan_deg": 224.3777,
      "arg_perigee_deg": 170.1694,
      "mean_anomaly_deg": 189.9575,
      "mean_motion_rev_day": 15.18106542
    },
    {
      "epoch": "2026-03-30T22:43:49.821888Z",
      "apogee_km": 512.7999477512267,
      "perigee_km": 510.28714346263314,
      "latitude_deg": 4.460049704903977e-05,
      "longitude_deg": 55.41996984649925,
      "height_km": 515.8598256796034,
      "semi_major_axis_km": 6889.68054560693,
      "eccentricity": 0.00018236,
      "inclination_deg": 97.6071,
      "raan_deg": 224.7091,
      "arg_perigee_deg": 169.3068,
      "mean_anomaly_deg": 190.8205,
      "mean_motion_rev_day": 15.18113121
    },
    {
      "epoch": "2026-03-31T20:52:39.421344Z",
      "apogee_km": 512.959478273584,
      "perigee_km": 510.211856873756,
      "latitude_deg": -8.79631693178549e-06,
      "longitude_deg": 83.23146429347219,
      "height_km": 516.0100041430622,
      "semi_major_axis_km": 6889.722667573669,
      "eccentricity": 0.0001994,
      "inclination_deg": 97.6079,
      "raan_deg": 225.6368,
      "arg_perigee_deg": 167.7991,
      "mean_anomaly_deg": 192.3291,
      "mean_motion_rev_day": 15.18099199
    },
    {
      "epoch": "2026-04-01T12:41:48.429600Z",
      "apogee_km": 512.9364484436064,
      "perigee_km": 510.14199576792,
      "latitude_deg": -1.064308273263283e-05,
      "longitude_deg": -154.04323921048413,
      "height_km": 516.0029355994654,
      "semi_major_axis_km": 6889.6762221057625,
      "eccentricity": 0.0002028,
      "inclination_deg": 97.6076,
      "raan_deg": 226.2993,
      "arg_perigee_deg": 171.5145,
      "mean_anomaly_deg": 188.6123,
      "mean_motion_rev_day": 15.1811455
    },
    {
      "epoch": "2026-04-02T07:40:47.590464Z",
      "apogee_km": 513.7186695159808,
      "perigee_km": 509.49139939332053,
      "latitude_deg": 3.0698126352895015e-05,
      "longitude_deg": -78.77985571865422,
      "height_km": 516.5803892600692,
      "semi_major_axis_km": 6889.74203445465,
      "eccentricity": 0.00030678,
      "inclination_deg": 97.6008,
      "raan_deg": 227.0888,
      "arg_perigee_deg": 153.7087,
      "mean_anomaly_deg": 206.4303,
      "mean_motion_rev_day": 15.18092798
    },
    {
      "epoch": "2026-04-02T21:55:03.404640Z",
      "apogee_km": 512.9915120609949,
      "perigee_km": 510.3534040195118,
      "latitude_deg": 5.986646849263761e-05,
      "longitude_deg": 67.6718257804508,
      "height_km": 516.0467068329231,
      "semi_major_axis_km": 6889.809458040253,
      "eccentricity": 0.00019145,
      "inclination_deg": 97.6084,
      "raan_deg": 227.6911,
      "arg_perigee_deg": 168.5283,
      "mean_anomaly_deg": 191.5995,
      "mean_motion_rev_day": 15.18070514
    },
    {
      "epoch": "2026-04-03T20:03:53.431776Z",
      "apogee_km": 512.9642365045484,
      "perigee_km": 510.2097248570726,
      "latitude_deg": 1.9222227033611854e-05,
      "longitude_deg": 95.48143037069765,
      "height_km": 515.9991227271427,
      "semi_major_axis_km": 6889.72398068081,
      "eccentricity": 0.0001999,
      "inclination_deg": 97.6089,
      "raan_deg": 228.6187,
      "arg_perigee_deg": 165.0708,
      "mean_anomaly_deg": 195.0585,
      "mean_motion_rev_day": 15.18098765
    },
    {
      "epoch": "2026-04-04T19:47:36.812832Z",
      "apogee_km": 512.9550963902202,
      "perigee_km": 510.0738441453541,
      "latitude_deg": -4.669384396406788e-05,
      "longitude_deg": 99.5702801536699,
      "height_km": 515.9704309053095,
      "semi_major_axis_km": 6889.651470267787,
      "eccentricity": 0.0002091,
      "inclination_deg": 97.6091,
      "raan_deg": 229.6128,
      "arg_perigee_deg": 162.6011,
      "mean_anomaly_deg": 197.5294,
      "mean_motion_rev_day": 15.18122731
    },
    {
      "epoch": "2026-04-05T08:26:55.402368Z",
      "apogee_km": 512.9381989569092,
      "perigee_km": 510.01149184498354,
      "latitude_deg": 6.789831322159557e-05,
      "longitude_deg": -90.24702137544767,
      "height_km": 515.9472398950614,
      "semi_major_axis_km": 6889.611845400947,
      "eccentricity": 0.0002124,
      "inclination_deg": 97.6091,
      "raan_deg": 230.1427,
      "arg_perigee_deg": 161.9318,
      "mean_anomaly_deg": 198.1992,
      "mean_motion_rev_day": 15.18135828
    },
    {
      "epoch": "2026-04-05T21:06:13.730112Z",
      "apogee_km": 512.9259123630081,
      "perigee_km": 509.9689027352879,
      "latitude_deg": -9.925637601354295e-06,
      "longitude_deg": 79.93709629809057,
      "height_km": 515.9302327147304,
      "semi_major_axis_km": 6889.584407549148,
      "eccentricity": 0.0002146,
      "inclination_deg": 97.6091,
      "raan_deg": 230.6729,
      "arg_perigee_deg": 161.4433,
      "mean_anomaly_deg": 198.6879,
      "mean_motion_rev_day": 15.18144897
    },
    {
      "epoch": "2026-04-07T07:54:17.598240Z",
      "apogee_km": 512.8794739974,
      "perigee_km": 509.8489202108176,
      "latitude_deg": -2.4392008726447586e-06,
      "longitude_deg": -82.04975490315177,
      "height_km": 515.860248666852,
      "semi_major_axis_km": 6889.5011971041085,
      "eccentricity": 0.00021994,
      "inclination_deg": 97.6092,
      "raan_deg": 232.1314,
      "arg_perigee_deg": 159.0378,
      "mean_anomaly_deg": 201.0946,
      "mean_motion_rev_day": 15.18172401
    }
  ]
}